ION SCV-004             
1 50993U 22002K   26068.68892644  .00006538  00000+0  23198-3 0  9998
2 50993  97.2961 128.2294 0007216   1.6783 358.4480 15.29369331230088
STARLINK-35758          
1 66229U 25244Z   26068.70484127  .00017249  00000+0  59310-3 0  9990
2 66229  53.1600 229.7065 0000937  80.3876 279.7231 15.30203217 21664
